start=new Date('2023-05-17T00:00:00.000Z').valueOf();
sats=[{"GP_ID":"231997166","NORAD_CAT_ID":"47886","SEMIMAJOR_AXIS":"6861.447","TLE_LINE1":"1 47886U 21021AC  23136.87392292  .00054984  00000-0  20139-2 0  9993","PERIAPSIS":"478.691","BSTAR":"0.00201390000000","INCLINATION":"53.0585","EPHEMERIS_TYPE":"0","ECCENTRICITY":"0.00067350","LAUNCH_DATE":"2021-03-14","CENTER_NAME":"EARTH","FILE":"3909742","EPOCH":"2023-05-16T20:58:26.940288","APOAPSIS":"487.933","OBJECT_ID":"2021-021AC","MEAN_MOTION":"15.27492952","REV_AT_EPOCH":"12137","SITE":"AFETR","RA_OF_ASC_NODE":"199.2530","OBJECT_TYPE":"PAYLOAD","MEAN_MOTION_DOT":"0.00054984","TLE_LINE2":"2 47886  53.0585 199.2530 0006735 341.4290  18.6461 15.27492952121370","MEAN_ANOMALY":"18.6461","ARG_OF_PERICENTER":"341.4290","OBJECT_NAME":"STARLINK-2345","MEAN_MOTION_DDOT":"0.0000000000000","COUNTRY_CODE":"US","TIME_SYSTEM":"UTC","MEAN_ELEMENT_THEORY":"SGP4","REF_FRAME":"TEME","RCS_SIZE":"LARGE","DECAY_DATE":null,"CLASSIFICATION_TYPE":"U","ELEMENT_SET_NO":"999","PERIOD":"94.272"},{"TIME_SYSTEM":"UTC","REF_FRAME":"TEME","MEAN_ELEMENT_THEORY":"SGP4","ELEMENT_SET_NO":"999","PERIOD":"95.593","DECAY_DATE":null,"RCS_SIZE":"LARGE","CLASSIFICATION_TYPE":"U","ARG_OF_PERICENTER":"107.5678","TLE_LINE2":"2 47887  53.0548 217.5358 0001333 107.5678 252.5457 15.06391241120595","MEAN_ANOMALY":"252.5457","COUNTRY_CODE":"US","OBJECT_NAME":"STARLINK-2346","MEAN_MOTION_DDOT":"0.0000000000000","ECCENTRICITY":"0.00013330","CENTER_NAME":"EARTH","LAUNCH_DATE":"2021-03-14","EPHEMERIS_TYPE":"0","SITE":"AFETR","REV_AT_EPOCH":"12059","MEAN_MOTION_DOT":"0.00000796","OBJECT_TYPE":"PAYLOAD","RA_OF_ASC_NODE":"217.5358","OBJECT_ID":"2021-021AD","APOAPSIS":"548.164","EPOCH":"2023-05-16T10:58:37.166304","FILE":"3909692","MEAN_MOTION":"15.06391241","GP_ID":"231974584","TLE_LINE1":"1 47887U 21021AD  23136.45737461  .00000796  00000-0  72316-4 0  9997","PERIAPSIS":"546.317","INCLINATION":"53.0548","BSTAR":"0.00007231600000","NORAD_CAT_ID":"47887","SEMIMAJOR_AXIS":"6925.375"},{"SITE":"AFETR","REV_AT_EPOCH":"12128","MEAN_MOTION_DOT":"0.00009677","OBJECT_TYPE":"PAYLOAD","RA_OF_ASC_NODE":"205.6401","APOAPSIS":"548.059","OBJECT_ID":"2021-021AE","EPOCH":"2023-05-16T21:05:01.811616","FILE":"3909742","MEAN_MOTION":"15.06397495","ECCENTRICITY":"0.00012100","LAUNCH_DATE":"2021-03-14","CENTER_NAME":"EARTH","EPHEMERIS_TYPE":"0","PERIAPSIS":"546.383","TLE_LINE1":"1 47888U 21021AE  23136.87849319  .00009677  00000-0  66770-3 0  9993","INCLINATION":"53.0541","BSTAR":"0.00066770000000","NORAD_CAT_ID":"47888","SEMIMAJOR_AXIS":"6925.356","GP_ID":"231996164","ELEMENT_SET_NO":"999","PERIOD":"95.592","DECAY_DATE":null,"RCS_SIZE":"LARGE","CLASSIFICATION_TYPE":"U","TIME_SYSTEM":"UTC","REF_FRAME":"TEME","MEAN_ELEMENT_THEORY":"SGP4","COUNTRY_CODE":"US","OBJECT_NAME":"STARLINK-2348","MEAN_MOTION_DDOT":"0.0000000000000","ARG_OF_PERICENTER":"95.0291","TLE_LINE2":"2 47888  53.0541 205.6401 0001210  95.0291 265.0836 15.06397495121286","MEAN_ANOMALY":"265.0836"},{"OBJECT_NAME":"STARLINK-2349","MEAN_MOTION_DDOT":"0.0000000000000","COUNTRY_CODE":"US","TLE_LINE2":"2 47889  53.0534 205.5905 0001058  96.8054 263.3056 15.06392798121335","MEAN_ANOMALY":"263.3056","ARG_OF_PERICENTER":"96.8054","DECAY_DATE":null,"RCS_SIZE":"LARGE","CLASSIFICATION_TYPE":"U","ELEMENT_SET_NO":"999","PERIOD":"95.593","TIME_SYSTEM":"UTC","REF_FRAME":"TEME","MEAN_ELEMENT_THEORY":"SGP4","NORAD_CAT_ID":"47889","SEMIMAJOR_AXIS":"6925.371","TLE_LINE1":"1 47889U 21021AF  23136.88954885  .00008164  00000-0  56646-3 0  9991","PERIAPSIS":"546.503","INCLINATION":"53.0534","BSTAR":"0.00056646000000","GP_ID":"231996916","OBJECT_ID":"2021-021AF","APOAPSIS":"547.968","FILE":"3909742","EPOCH":"2023-05-16T21:20:57.020640","MEAN_MOTION":"15.06392798","SITE":"AFETR","REV_AT_EPOCH":"12133","MEAN_MOTION_DOT":"0.00008164","RA_OF_ASC_NODE":"205.5905","OBJECT_TYPE":"PAYLOAD","EPHEMERIS_TYPE":"0","ECCENTRICITY":"0.00010580","LAUNCH_DATE":"2021-03-14","CENTER_NAME":"EARTH"},{"OBJECT_ID":"2021-021AH","APOAPSIS":"547.978","EPOCH":"2023-05-16T15:08:05.819424","FILE":"3909742","MEAN_MOTION":"15.06394456","SITE":"AFETR","REV_AT_EPOCH":"12126","MEAN_MOTION_DOT":"0.00019634","RA_OF_ASC_NODE":"216.7555","OBJECT_TYPE":"PAYLOAD","EPHEMERIS_TYPE":"0","ECCENTRICITY":"0.00010800","LAUNCH_DATE":"2021-03-14","CENTER_NAME":"EARTH","NORAD_CAT_ID":"47891","SEMIMAJOR_AXIS":"6925.366","TLE_LINE1":"1 47891U 21021AH  23136.63062291  .00019634  00000-0  13335-2 0  9999","PERIAPSIS":"546.483","INCLINATION":"53.0536","BSTAR":"0.00133350000000","GP_ID":"231997666","DECAY_DATE":null,"RCS_SIZE":"LARGE","CLASSIFICATION_TYPE":"U","ELEMENT_SET_NO":"999","PERIOD":"95.592","TIME_SYSTEM":"UTC","REF_FRAME":"TEME","MEAN_ELEMENT_THEORY":"SGP4","OBJECT_NAME":"STARLINK-2351","MEAN_MOTION_DDOT":"0.0000000000000","COUNTRY_CODE":"US","TLE_LINE2":"2 47891  53.0536 216.7555 0001080  64.6038 295.5062 15.06394456121264","MEAN_ANOMALY":"295.5062","ARG_OF_PERICENTER":"64.6038"},{"MEAN_MOTION_DOT":"0.00014309","OBJECT_TYPE":"PAYLOAD","RA_OF_ASC_NODE":"182.3165","SITE":"AFETR","REV_AT_EPOCH":"12161","MEAN_MOTION":"15.17398761","APOAPSIS":"514.642","OBJECT_ID":"2021-021AJ","EPOCH":"2023-05-16T20:24:04.625856","FILE":"3909742","LAUNCH_DATE":"2021-03-14","CENTER_NAME":"EARTH","ECCENTRICITY":"0.00013560","EPHEMERIS_TYPE":"0","INCLINATION":"53.0512","BSTAR":"0.00072141000000","PERIAPSIS":"512.773","TLE_LINE1":"1 47892U 21021AJ  23136.85005354  .00014309  00000-0  72141-3 0  9996","SEMIMAJOR_AXIS":"6891.843","NORAD_CAT_ID":"47892","GP_ID":"231996414","ELEMENT_SET_NO":"999","PERIOD":"94.899","CLASSIFICATION_TYPE":"U","DECAY_DATE":null,"RCS_SIZE":"LARGE","REF_FRAME":"TEME","MEAN_ELEMENT_THEORY":"SGP4","TIME_SYSTEM":"UTC","COUNTRY_CODE":"US","MEAN_MOTION_DDOT":"0.0000000000000","OBJECT_NAME":"STARLINK-2352","ARG_OF_PERICENTER":"94.2856","MEAN_ANOMALY":"265.8292","TLE_LINE2":"2 47892  53.0512 182.3165 0001356  94.2856 265.8292 15.17398761121616"},{"ECCENTRICITY":"0.00014420","LAUNCH_DATE":"2021-03-14","CENTER_NAME":"EARTH","EPHEMERIS_TYPE":"0","REV_AT_EPOCH":"12118","SITE":"AFETR","OBJECT_TYPE":"PAYLOAD","RA_OF_ASC_NODE":"206.9443","MEAN_MOTION_DOT":"0.00005586","FILE":"3909472","EPOCH":"2023-05-16T14:05:44.189664","APOAPSIS":"548.214","OBJECT_ID":"2021-021AL","MEAN_MOTION":"15.06399326","GP_ID":"231964686","TLE_LINE1":"1 47894U 21021AL  23136.58731701  .00005586  00000-0  39364-3 0  9997","PERIAPSIS":"546.217","BSTAR":"0.00039364000000","INCLINATION":"53.0540","NORAD_CAT_ID":"47894","SEMIMAJOR_AXIS":"6925.351","TIME_SYSTEM":"UTC","MEAN_ELEMENT_THEORY":"SGP4","REF_FRAME":"TEME","PERIOD":"95.592","ELEMENT_SET_NO":"999","RCS_SIZE":"LARGE","DECAY_DATE":null,"CLASSIFICATION_TYPE":"U","ARG_OF_PERICENTER":"78.1540","TLE_LINE2":"2 47894  53.0540 206.9443 0001442  78.1540 281.9610 15.06399326121189","MEAN_ANOMALY":"281.9610","COUNTRY_CODE":"US","OBJECT_NAME":"STARLINK-2354","MEAN_MOTION_DDOT":"0.0000000000000"},{"SEMIMAJOR_AXIS":"6925.367","NORAD_CAT_ID":"47895","INCLINATION":"53.0524","BSTAR":"0.00050504000000","TLE_LINE1":"1 47895U 21021AM  23136.59836649  .00007248  00000-0  50504-3 0  9992","PERIAPSIS":"546.569","GP_ID":"231997416","MEAN_MOTION":"15.06393863","OBJECT_ID":"2021-021AM","APOAPSIS":"547.896","FILE":"3909742","EPOCH":"2023-05-16T14:21:38.864736","MEAN_MOTION_DOT":"0.00007248","OBJECT_TYPE":"PAYLOAD","RA_OF_ASC_NODE":"206.9017","SITE":"AFETR","REV_AT_EPOCH":"12121","EPHEMERIS_TYPE":"0","LAUNCH_DATE":"2021-03-14","CENTER_NAME":"EARTH","ECCENTRICITY":"0.00009580","MEAN_MOTION_DDOT":"0.0000000000000","OBJECT_NAME":"STARLINK-2355","COUNTRY_CODE":"US","MEAN_ANOMALY":"265.3501","TLE_LINE2":"2 47895  53.0524 206.9017 0000958  94.7597 265.3501 15.06393863121215","ARG_OF_PERICENTER":"94.7597","CLASSIFICATION_TYPE":"U","DECAY_DATE":null,"RCS_SIZE":"LARGE","PERIOD":"95.593","ELEMENT_SET_NO":"999","REF_FRAME":"TEME","MEAN_ELEMENT_THEORY":"SGP4","TIME_SYSTEM":"UTC"},{"INCLINATION":"53.0549","BSTAR":"0.00133530000000","PERIAPSIS":"546.556","TLE_LINE1":"1 47896U 21021AN  23136.45875330  .00019658  00000-0  13353-2 0  9996","SEMIMAJOR_AXIS":"6925.382","NORAD_CAT_ID":"47896","GP_ID":"231963191","MEAN_MOTION_DOT":"0.00019658","RA_OF_ASC_NODE":"222.5242","OBJECT_TYPE":"PAYLOAD","SITE":"AFETR","REV_AT_EPOCH":"12095","MEAN_MOTION":"15.06389024","APOAPSIS":"547.938","OBJECT_ID":"2021-021AN","FILE":"3909472","EPOCH":"2023-05-16T11:00:36.285120","CENTER_NAME":"EARTH","LAUNCH_DATE":"2021-03-14","ECCENTRICITY":"0.00009980","EPHEMERIS_TYPE":"0","COUNTRY_CODE":"US","MEAN_MOTION_DDOT":"0.0000000000000","OBJECT_NAME":"STARLINK-2356","ARG_OF_PERICENTER":"98.7169","MEAN_ANOMALY":"261.3933","TLE_LINE2":"2 47896  53.0549 222.5242 0000998  98.7169 261.3933 15.06389024120959","ELEMENT_SET_NO":"999","PERIOD":"95.593","CLASSIFICATION_TYPE":"U","DECAY_DATE":null,"RCS_SIZE":"LARGE","REF_FRAME":"TEME","MEAN_ELEMENT_THEORY":"SGP4","TIME_SYSTEM":"UTC"},{"MEAN_ELEMENT_THEORY":"SGP4","REF_FRAME":"TEME","TIME_SYSTEM":"UTC","PERIOD":"95.593","ELEMENT_SET_NO":"999","CLASSIFICATION_TYPE":"U","RCS_SIZE":"LARGE","DECAY_DATE":null,"ARG_OF_PERICENTER":"88.7383","MEAN_ANOMALY":"271.3677","TLE_LINE2":"2 47897  53.0526 206.9052 0000618  88.7383 271.3677 15.06389908121246","COUNTRY_CODE":"US","MEAN_MOTION_DDOT":"0.0000000000000","OBJECT_NAME":"STARLINK-2357","LAUNCH_DATE":"2021-03-14","CENTER_NAME":"EARTH","ECCENTRICITY":"0.00006180","EPHEMERIS_TYPE":"0","OBJECT_TYPE":"PAYLOAD","RA_OF_ASC_NODE":"206.9052","MEAN_MOTION_DOT":"0.00014816","REV_AT_EPOCH":"12124","SITE":"AFETR","MEAN_MOTION":"15.06389908","EPOCH":"2023-05-16T14:20:16.208448","FILE":"3909742","APOAPSIS":"547.672","OBJECT_ID":"2021-021AP","GP_ID":"231995915","BSTAR":"0.00101170000000","INCLINATION":"53.0526","PERIAPSIS":"546.817","TLE_LINE1":"1 47897U 21021AP  23136.59740982  .00014816  00000-0  10117-2 0  9992","SEMIMAJOR_AXIS":"6925.379","NORAD_CAT_ID":"47897"}];
